ONEWEB-0056             
1 45159U 20008AE  24189.39786349 -.00000120  00000+0 -38007-3 0  9992
2 45159  87.8944 177.4145 0002172  90.7500 269.3876 13.10376670215225
ONEWEB-0057             
1 45160U 20008AF  24189.40451177  .00000266  00000+0  72704-3 0  9995
2 45160  87.8947 177.4149 0002152  86.6758 273.4615 13.10376149215397
ONEWEB-0058             
1 45161U 20008AG  24189.39135905 -.00000412  00000+0 -12161-2 0  9997
2 45161  87.8940 177.4517 0002091  82.8181 277.3184 13.10375428215461
ONEWEB-0059             
1 45162U 20008AH  24189.38789771 -.00000528  00000+0 -15474-2 0  9991
2 45162  87.8945 177.4334 0001998  82.7676 277.3678 13.10374870215364
ONEWEB-0062             
1 45163U 20008AJ  24189.41447383  .00000611  00000+0  17133-2 0  9991
2 45163  87.8942 177.4122 0001741  80.9443 279.1882 13.10375520215231
ONEWEB-0065             
1 45164U 20008AK  24189.39288416 -.00000308  00000+0 -91923-3 0  9994
2 45164  87.8951 177.4239 0002129  91.1927 268.9444 13.10375592214927
ONEWEB-0066             
1 45424U 20020A   24189.43414154 -.00000039  00000+0 -14608-3 0  9998
2 45424  87.8974 162.3194 0002452  80.0009 280.1395 13.11418868209651
ONEWEB-0067             
1 45425U 20020B   24189.39527335  .00000098  00000+0  24040-3 0  9994
2 45425  87.8956 162.2863 0002336  85.7261 274.4134 13.11413673209709
